OBJECT_NAME,OBJECT_ID,EPOCH,MEAN_MOTION,ECCENTRICITY,INCLINATION,RA_OF_ASC_NODE,ARG_OF_PERICENTER,MEAN_ANOMALY,EPHEMERIS_TYPE,CLASSIFICATION_TYPE,NORAD_CAT_ID,ELEMENT_SET_NO,REV_AT_EPOCH,BSTAR,MEAN_MOTION_DOT,MEAN_MOTION_DDOT
STARLINK-31427,2024-049L,2026-07-15T04:52:23.161440,15.27581822,.00011169,43.0007,143.7180,254.2779,105.7949,0,U,59241,999,13190,.43904536E-4,.946E-5,0
STARLINK-31423,2024-049M,2026-07-15T06:17:17.511936,15.27591908,.00014358,43.0032,143.3232,279.2309,80.8381,0,U,59242,999,13191,-.6162088E-3,-.17186E-3,0
STARLINK-31433,2024-049N,2026-07-14T21:49:29.985312,15.27579139,.0001205,43.0038,144.9875,279.2651,80.8065,0,U,59243,999,13186,.53797E-4,.1218E-4,0
STARLINK-31285,2024-049P,2026-07-15T05:18:04.800960,15.27563433,.0001139,42.9999,143.0217,281.5942,78.4781,0,U,59244,999,13190,-.86454631E-4,-.2639E-4,0
STARLINK-31284,2024-049R,2026-07-15T05:34:43.247136,15.27582824,.00009792,43.0032,143.1075,250.1366,109.9380,0,U,59246,999,13190,.33697758E-4,.665E-5,0
STARLINK-31424,2024-049S,2026-07-15T05:48:22.942080,15.27586986,.00014095,43.0027,139.7158,292.5525,67.5177,0,U,59247,999,13194,.99936946E-4,.2489E-4,0
STARLINK-31405,2024-049T,2026-07-14T06:33:51.743520,15.27563394,.0001454,43.0024,148.8095,273.3326,86.7359,0,U,59248,999,13175,.87686205E-4,.215E-4,0
STARLINK-31426,2024-049U,2026-07-15T04:37:34.501152,15.27578176,.00012225,43.0020,143.6618,275.5464,84.5248,0,U,59249,999,13189,.13466184E-4,.108E-5,0
STARLINK-31407,2024-049V,2026-07-15T04:17:14.356896,15.27601309,.00010187,43.0008,132.3123,258.6234,101.4503,0,U,59250,999,13202,-.14174926E-3,-.4163E-4,0
STARLINK-31393,2024-049X,2026-07-15T04:32:45.188160,15.27577889,.00006459,43.0011,128.9264,249.5727,110.5056,0,U,59252,999,13207,.2609017E-5,-.19E-5,0
STARLINK-31425,2024-049Y,2026-07-15T05:29:10.431744,15.27576010,.00010016,43.0034,143.0802,288.1524,71.9219,0,U,59253,999,13190,.1364193E-5,-.224E-5,0
STARLINK-31659,2024-050A,2026-07-15T12:21:11.733696,15.34390761,.00008934,53.1601,302.6945,98.0267,262.0837,0,U,59254,999,13133,-.55958116E-4,-.2265E-4,0
STARLINK-31629,2024-050B,2026-07-15T13:08:15.354816,15.30190915,.00011658,53.1595,307.1474,61.6336,298.4782,0,U,59255,999,13012,-.12309946E-4,-.724E-5,0
STARLINK-31652,2024-050C,2026-07-15T11:58:14.745792,15.31693226,.00012432,53.1612,306.8501,110.9508,249.1627,0,U,59256,999,13012,.5685957E-5,-.189E-5,0
STARLINK-31637,2024-050E,2026-07-15T12:58:13.549440,15.34401287,.00010915,53.1611,306.3956,81.3676,278.7450,0,U,59258,999,13013,-.5716413E-5,-.569E-5,0
STARLINK-31506,2024-050F,2026-07-15T13:03:41.242176,15.30193959,.00013762,53.1598,307.1280,96.7324,263.3834,0,U,59259,999,13012,.61137175E-4,.1452E-4,0
STARLINK-31639,2024-050H,2026-07-15T11:51:31.347648,15.31695261,.00009166,53.1609,306.8209,103.9333,256.1770,0,U,59261,999,13012,-.13826169E-4,-.794E-5,0
STARLINK-31598,2024-050K,2026-07-15T11:30:29.883456,15.34384006,.00012518,53.1591,306.7078,68.0083,292.1052,0,U,59263,999,13012,-.14443648E-4,-.864E-5,0
STARLINK-31645,2024-050L,2026-07-15T12:15:56.924064,15.34394108,.00012616,53.1604,306.9212,66.6761,293.4374,0,U,59264,999,13012,.39735181E-3,.1307E-3,0
STARLINK-31646,2024-050M,2026-07-15T13:13:23.295648,15.34389132,.00017305,53.1598,306.4653,56.4578,303.6590,0,U,59265,999,13013,.11990875E-3,.3675E-4,0
STARLINK-31648,2024-050N,2026-07-15T12:54:34.726752,15.30165654,.00013962,53.1612,307.0883,108.1375,251.9778,0,U,59266,999,13012,.15527739E-3,.4238E-4,0
STARLINK-31579,2024-050P,2026-07-15T13:14:20.275584,15.30194652,.00006957,53.1603,307.1711,73.5548,286.5530,0,U,59267,999,13012,-.65765E-6,-.378E-5,0
STARLINK-31627,2024-050Q,2026-07-15T13:16:24.204288,15.34386089,.00011588,53.1606,306.4705,100.3199,259.7934,0,U,59268,999,13013,.76304745E-3,.25481E-3,0
STARLINK-31609,2024-050R,2026-07-15T11:48:41.164704,15.34378533,.00011696,53.1616,306.8018,87.1180,272.9956,0,U,59269,999,13012,.22738749E-4,.392E-5,0
STARLINK-31616,2024-050S,2026-07-15T13:01:16.430592,15.34393981,.00016865,53.1603,306.4065,86.7719,273.3476,0,U,59270,999,13013,.32468312E-3,.10607E-3,0
STARLINK-31630,2024-050T,2026-07-15T12:08:59.207712,15.34392175,.00010737,53.1602,292.6817,53.6524,306.4577,0,U,59271,999,13032,.69579466E-4,.1975E-4,0
STARLINK-31623,2024-050U,2026-07-15T12:55:12.553536,15.34387547,.00008932,53.1611,306.3855,107.0490,253.0611,0,U,59272,999,13013,-.423282E-5,-.519E-5,0
STARLINK-31595,2024-050V,2026-07-15T12:59:08.146464,15.30192584,.00009203,53.1602,307.1213,97.6263,262.4842,0,U,59273,999,13012,-.14385368E-4,-.785E-5,0
STARLINK-31463,2024-056A,2026-07-15T03:38:05.459712,15.27588906,.0005472,43.0103,226.9421,311.4631,48.5750,0,U,59296,999,13069,.70463307E-4,.1677E-4,0
STARLINK-31487,2024-056B,2026-07-15T03:20:57.919200,15.27577428,.00011199,43.0014,231.1549,274.7870,85.2854,0,U,59297,999,13076,-.9505169E-5,-.524E-5,0
