STARLINK-31427          
1 59241U 24049L   26196.20304585  .00000946  00000+0  43905-4 0  9994
2 59241  43.0007 143.7180 0001116 254.2779 105.7949 15.27581822131906
STARLINK-31423          
1 59242U 24049M   26196.26200824 -.00017186  00000+0 -61621-3 0  9992
2 59242  43.0032 143.3232 0001435 279.2309  80.8381 15.27591908131919
STARLINK-31433          
1 59243U 24049N   26195.90937483  .00001218  00000+0  53797-4 0  9994
2 59243  43.0038 144.9875 0001205 279.2651  80.8065 15.27579139131866
STARLINK-31285          
1 59244U 24049P   26196.22088890 -.00002639  00000+0 -86455-4 0  9997
2 59244  42.9999 143.0217 0001139 281.5942  78.4781 15.27563433131909
STARLINK-31284          
1 59246U 24049R   26196.23244499  .00000665  00000+0  33698-4 0  9995
2 59246  43.0032 143.1075 0000979 250.1366 109.9380 15.27582824131907
STARLINK-31424          
1 59247U 24049S   26196.24193220  .00002489  00000+0  99937-4 0  9996
2 59247  43.0027 139.7158 0001409 292.5525  67.5177 15.27586986131941
STARLINK-31405          
1 59248U 24049T   26195.27351555  .00002150  00000+0  87686-4 0  9999
2 59248  43.0024 148.8095 0001454 273.3326  86.7359 15.27563394131758
STARLINK-31426          
1 59249U 24049U   26196.19276043  .00000108  00000+0  13466-4 0  9996
2 59249  43.0020 143.6618 0001222 275.5464  84.5248 15.27578176131891
STARLINK-31407          
1 59250U 24049V   26196.17863839 -.00004163  00000+0 -14175-3 0  9995
2 59250  43.0008 132.3123 0001018 258.6234 101.4503 15.27601309132029
STARLINK-31393          
1 59252U 24049X   26196.18941190 -.00000190  00000+0  26090-5 0  9991
2 59252  43.0011 128.9264 0000645 249.5727 110.5056 15.27577889132077
STARLINK-31425          
1 59253U 24049Y   26196.22859296 -.00000224  00000+0  13642-5 0  9999
2 59253  43.0034 143.0802 0001001 288.1524  71.9219 15.27576010131907
STARLINK-31659          
1 59254U 24050A   26196.51471914 -.00002265  00000+0 -55958-4 0  9994
2 59254  53.1601 302.6945 0000893  98.0267 262.0837 15.34390761131332
STARLINK-31629          
1 59255U 24050B   26196.54739994 -.00000724  00000+0 -12310-4 0  9996
2 59255  53.1595 307.1474 0001165  61.6336 298.4782 15.30190915130121
STARLINK-31652          
1 59256U 24050C   26196.49878178 -.00000189  00000+0  56860-5 0  9992
2 59256  53.1612 306.8501 0001243 110.9508 249.1627 15.31693226130120
STARLINK-31637          
1 59258U 24050E   26196.54043460 -.00000569  00000+0 -57164-5 0  9999
2 59258  53.1611 306.3956 0001091  81.3676 278.7450 15.34401287130138
STARLINK-31506          
1 59259U 24050F   26196.54422734  .00001452  00000+0  61137-4 0  9999
2 59259  53.1598 307.1280 0001376  96.7324 263.3834 15.30193959130123
STARLINK-31639          
1 59261U 24050H   26196.49411282 -.00000794  00000+0 -13826-4 0  9994
2 59261  53.1609 306.8209 0000916 103.9333 256.1770 15.31695261130129
STARLINK-31598          
1 59263U 24050K   26196.47951254 -.00000864  00000+0 -14444-4 0  9997
2 59263  53.1591 306.7078 0001251  68.0083 292.1052 15.34384006130128
STARLINK-31645          
1 59264U 24050L   26196.51107551  .00013070  00000+0  39735-3 0  9996
2 59264  53.1604 306.9212 0001261  66.6761 293.4374 15.34394108130129
STARLINK-31646          
1 59265U 24050M   26196.55096407  .00003675  00000+0  11991-3 0  9992
2 59265  53.1598 306.4653 0001730  56.4578 303.6590 15.34389132130136
STARLINK-31648          
1 59266U 24050N   26196.53790193  .00004238  00000+0  15528-3 0  9990
2 59266  53.1612 307.0883 0001396 108.1375 251.9778 15.30165654130123
STARLINK-31579          
1 59267U 24050P   26196.55162356 -.00000378  00000+0 -65765-6 0  9991
2 59267  53.1603 307.1711 0000695  73.5548 286.5530 15.30194652130123
STARLINK-31627          
1 59268U 24050Q   26196.55305792  .00025481  00000+0  76305-3 0  9994
2 59268  53.1606 306.4705 0001158 100.3199 259.7934 15.34386089130130
STARLINK-31609          
1 59269U 24050R   26196.49214311  .00000392  00000+0  22739-4 0  9991
2 59269  53.1616 306.8018 0001169  87.1180 272.9956 15.34378533130122
STARLINK-31616          
1 59270U 24050S   26196.54255128  .00010607  00000+0  32468-3 0  9999
2 59270  53.1603 306.4065 0001686  86.7719 273.3476 15.34393981130132
STARLINK-31630          
1 59271U 24050T   26196.50624083  .00001975  00000+0  69579-4 0  9998
2 59271  53.1602 292.6817 0001073  53.6524 306.4577 15.34392175130325
STARLINK-31623          
1 59272U 24050U   26196.53833974 -.00000519  00000+0 -42328-5 0  9992
2 59272  53.1611 306.3855 0000893 107.0490 253.0611 15.34387547130138
STARLINK-31595          
1 59273U 24050V   26196.54106651 -.00000785  00000+0 -14385-4 0  9995
2 59273  53.1602 307.1213 0000920  97.6263 262.4842 15.30192584130129
STARLINK-31463          
1 59296U 24056A   26196.15145208  .00001677  00000+0  70463-4 0  9992
2 59296  43.0103 226.9421 0005472 311.4631  48.5750 15.27588906130696
STARLINK-31487          
1 59297U 24056B   26196.13955925 -.00000524  00000+0 -95052-5 0  9990
2 59297  43.0014 231.1549 0001119 274.7870  85.2854 15.27577428130765
